[{"OBJECT_NAME":"QIANFAN-28","OBJECT_ID":"2024-185K","EPOCH":"2026-03-09T23:07:15.953376","MEAN_MOTION":14.28222603,"ECCENTRICITY":0.00077666,"INCLINATION":88.9768,"RA_OF_ASC_NODE":66.7039,"ARG_OF_PERICENTER":21.3295,"MEAN_ANOMALY":338.8222,"EPHEMERIS_TYPE":0,"CLASSIFICATION_TYPE":"U","NORAD_CAT_ID":61561,"ELEMENT_SET_NO":999,"REV_AT_EPOCH":8262,"BSTAR":0.0004308774,"MEAN_MOTION_DOT":1.088e-5,"MEAN_MOTION_DDOT":0},{"OBJECT_NAME":"DMSP 5D-2 F13 DEB","OBJECT_ID":"1995-015AD","EPOCH":"2026-03-09T13:00:34.988832","MEAN_MOTION":14.27787581,"ECCENTRICITY":0.00049109,"INCLINATION":98.7474,"RA_OF_ASC_NODE":94.6035,"ARG_OF_PERICENTER":40.3948,"MEAN_ANOMALY":319.7597,"EPHEMERIS_TYPE":0,"CLASSIFICATION_TYPE":"U","NORAD_CAT_ID":40416,"ELEMENT_SET_NO":999,"REV_AT_EPOCH":57153,"BSTAR":0.0010096012,"MEAN_MOTION_DOT":2.45e-5,"MEAN_MOTION_DDOT":0}]
